{"type": "FeatureCollection", "features": [{"type": "Feature", "properties": {"norad_id": 50032, "name": "COSMOS 1408 DEB", "group": "cosmos-1408-debris", "lat": 46.28472957354975, "lon": 66.30815456009665, "alt_km": 435.175321832854, "timestamp": "2025-12-12T18:57:44.400278+00:00", "meta": {"OBJECT_NAME": "COSMOS 1408 DEB", "OBJECT_ID": "1982-092RU", "EPOCH": "2025-12-12T06:19:48.735264", "MEAN_MOTION": 15.45686747, "ECCENTRICITY": 0.0015191, "INCLINATION": 82.5641, "RA_OF_ASC_NODE": 58.9964, "ARG_OF_PERICENTER": 210.2939, "MEAN_ANOMALY": 149.7434, "EPHEMERIS_TYPE": 0, "CLASSIFICATION_TYPE": "U", "NORAD_CAT_ID": 50032, "ELEMENT_SET_NO": 999, "REV_AT_EPOCH": 22596, "BSTAR": 0.00015871762, "MEAN_MOTION_DOT": 7.73e-05, "MEAN_MOTION_DDOT": 0}, "tle": {"line1": "1 50032U 82092RU  25346.26375851  .00007730  00000+0  15872-3 0  9990", "line2": "2 50032  82.5641  58.9964 0015191 210.2939 149.7434 15.45686747225961"}}, "geometry": {"type": "Point", "coordinates": [66.30815456009665, 46.28472957354975]}}, {"type": "Feature", "properties": {"norad_id": 50058, "name": "COSMOS 1408 DEB", "group": "cosmos-1408-debris", "lat": -70.74212849655598, "lon": -88.91289612662773, "alt_km": 393.58433008467, "timestamp": "2025-12-12T18:57:44.400298+00:00", "meta": {"OBJECT_NAME": "COSMOS 1408 DEB", "OBJECT_ID": "1982-092SW", "EPOCH": "2025-12-12T05:36:18.006336", "MEAN_MOTION": 15.64054472, "ECCENTRICITY": 0.00175789, "INCLINATION": 82.6128, "RA_OF_ASC_NODE": 69.8697, "ARG_OF_PERICENTER": 102.4674, "MEAN_ANOMALY": 257.8553, "EPHEMERIS_TYPE": 0, "CLASSIFICATION_TYPE": "U", "NORAD_CAT_ID": 50058, "ELEMENT_SET_NO": 999, "REV_AT_EPOCH": 22796, "BSTAR": 0.00045865233, "MEAN_MOTION_DOT": 0.00043842, "MEAN_MOTION_DDOT": 0}, "tle": {"line1": "1 50058U 82092SW  25346.23354174  .00043842  00000+0  45865-3 0  9999", "line2": "2 50058  82.6128  69.8697 0017578 102.4674 257.8553 15.64054472227963"}}, "geometry": {"type": "Point", "coordinates": [-88.91289612662773, -70.74212849655598]}}, {"type": "Feature", "properties": {"norad_id": 50404, "name": "COSMOS 1408 DEB", "group": "cosmos-1408-debris", "lat": -6.206490977885311, "lon": -145.87170764870476, "alt_km": 635.7636127126389, "timestamp": "2025-12-12T18:57:44.400311+00:00", "meta": {"OBJECT_NAME": "COSMOS 1408 DEB", "OBJECT_ID": "1982-092ADS", "EPOCH": "2025-12-12T01:32:19.955904", "MEAN_MOTION": 15.1364179, "ECCENTRICITY": 0.01720447, "INCLINATION": 82.2033, "RA_OF_ASC_NODE": 215.7253, "ARG_OF_PERICENTER": 201.2162, "MEAN_ANOMALY": 158.1879, "EPHEMERIS_TYPE": 0, "CLASSIFICATION_TYPE": "U", "NORAD_CAT_ID": 50404, "ELEMENT_SET_NO": 999, "REV_AT_EPOCH": 21183, "BSTAR": 0.0035622376, "MEAN_MOTION_DOT": 0.00093542, "MEAN_MOTION_DDOT": 0}, "tle": {"line1": "1 50404U 82092ADS 25346.06411986  .00093542  00000+0  35622-2 0  9991", "line2": "2 50404  82.2033 215.7253 0172044 201.2162 158.1879 15.13641790211831"}}, "geometry": {"type": "Point", "coordinates": [-145.87170764870476, -6.206490977885311]}}, {"type": "Feature", "properties": {"norad_id": 50621, "name": "COSMOS 1408 DEB", "group": "cosmos-1408-debris", "lat": -82.08746669189736, "lon": -36.01183589478042, "alt_km": 412.86576314841477, "timestamp": "2025-12-12T18:57:44.400323+00:00", "meta": {"OBJECT_NAME": "COSMOS 1408 DEB", "OBJECT_ID": "1982-092ALR", "EPOCH": "2025-12-12T07:01:11.212032", "MEAN_MOTION": 15.56625201, "ECCENTRICITY": 0.00288405, "INCLINATION": 82.571, "RA_OF_ASC_NODE": 74.6463, "ARG_OF_PERICENTER": 154.2231, "MEAN_ANOMALY": 206.0469, "EPHEMERIS_TYPE": 0, "CLASSIFICATION_TYPE": "U", "NORAD_CAT_ID": 50621, "ELEMENT_SET_NO": 999, "REV_AT_EPOCH": 22243, "BSTAR": 0.00051202562, "MEAN_MOTION_DOT": 0.00037272, "MEAN_MOTION_DDOT": 0}, "tle": {"line1": "1 50621U 82092ALR 25346.29249088  .00037272  00000+0  51203-3 0  9991", "line2": "2 50621  82.5710  74.6463 0028840 154.2231 206.0469 15.56625201222432"}}, "geometry": {"type": "Point", "coordinates": [-36.01183589478042, -82.08746669189736]}}]}